{
  "type": "FeatureCollection",
  "features": [
    {
      "type": "Feature",
      "properties": {
        "name": "India",
        "note": "Simplified boundary as per Survey of India. Includes full extent of Jammu & Kashmir and Arunachal Pradesh."
      },
      "geometry": {
        "type": "Polygon",
        "coordinates": [[
          [77.55, 8.08],
          [77.00, 8.25],
          [76.55, 8.90],
          [76.35, 9.95],
          [76.25, 10.75],
          [75.75, 11.85],
          [75.40, 12.05],
          [74.80, 12.75],
          [74.40, 13.85],
          [74.05, 14.60],
          [73.80, 15.40],
          [73.40, 16.05],
          [73.10, 17.00],
          [72.90, 18.00],
          [72.80, 18.95],
          [72.80, 20.10],
          [72.15, 21.00],
          [71.05, 20.75],
          [70.50, 21.00],
          [70.10, 21.65],
          [69.30, 22.10],
          [68.65, 23.20],
          [68.50, 23.80],
          [68.80, 24.30],
          [69.30, 24.80],
          [69.65, 25.60],
          [70.10, 26.40],
          [70.25, 26.90],
          [70.65, 27.90],
          [71.10, 28.50],
          [71.90, 29.00],
          [72.30, 29.30],
          [73.00, 29.60],
          [73.40, 29.95],
          [73.90, 30.40],
          [74.30, 31.10],
          [74.55, 31.70],
          [74.60, 32.25],
          [74.35, 32.80],
          [73.90, 33.50],
          [73.80, 34.30],
          [74.10, 34.85],
          [74.65, 35.30],
          [75.40, 35.80],
          [76.10, 36.20],
          [76.80, 36.55],
          [77.50, 36.45],
          [77.80, 36.20],
          [78.50, 35.90],
          [78.80, 35.50],
          [79.30, 35.00],
          [79.80, 34.30],
          [80.10, 33.70],
          [80.30, 33.10],
          [80.50, 32.40],
          [80.80, 31.70],
          [81.10, 31.30],
          [81.50, 30.80],
          [81.85, 30.40],
          [82.10, 30.15],
          [82.60, 29.85],
          [83.10, 29.60],
          [83.65, 29.30],
          [84.10, 29.00],
          [84.60, 28.70],
          [85.10, 28.35],
          [85.60, 28.20],
          [86.00, 28.10],
          [86.50, 27.90],
          [86.80, 27.85],
          [87.20, 27.80],
          [87.70, 27.40],
          [88.00, 27.00],
          [88.10, 26.55],
          [88.35, 26.25],
          [88.40, 26.60],
          [88.50, 27.10],
          [88.70, 27.55],
          [88.80, 27.90],
          [89.10, 28.10],
          [89.60, 28.10],
          [90.20, 28.05],
          [90.80, 28.00],
          [91.30, 27.95],
          [91.70, 27.80],
          [92.10, 27.80],
          [92.50, 27.90],
          [93.10, 28.25],
          [93.70, 28.60],
          [94.40, 28.85],
          [95.10, 29.00],
          [95.80, 29.05],
          [96.40, 29.10],
          [96.90, 28.80],
          [97.30, 28.20],
          [97.35, 27.90],
          [97.10, 27.40],
          [96.80, 27.10],
          [96.40, 26.60],
          [96.10, 26.10],
          [95.70, 25.70],
          [95.20, 25.30],
          [94.70, 25.00],
          [94.50, 24.60],
          [94.20, 24.10],
          [94.00, 23.80],
          [93.70, 23.30],
          [93.40, 23.00],
          [93.35, 22.60],
          [93.20, 22.20],
          [93.05, 21.90],
          [92.85, 21.50],
          [92.60, 21.30],
          [92.35, 21.00],
          [92.20, 20.80],
          [92.05, 21.10],
          [91.85, 21.50],
          [91.60, 22.00],
          [91.30, 22.40],
          [90.70, 22.20],
          [90.20, 21.90],
          [89.80, 21.80],
          [89.50, 21.65],
          [89.25, 21.70],
          [89.05, 22.00],
          [88.90, 22.40],
          [88.75, 22.80],
          [88.60, 23.30],
          [88.70, 23.80],
          [88.80, 24.20],
          [88.60, 24.50],
          [88.40, 24.85],
          [88.20, 25.15],
          [88.10, 25.50],
          [88.30, 25.90],
          [88.45, 26.30],
          [88.40, 26.55],
          [88.10, 26.55],
          [87.80, 26.40],
          [87.40, 26.40],
          [87.00, 26.50],
          [86.60, 26.50],
          [86.20, 26.60],
          [85.80, 26.60],
          [85.30, 26.70],
          [84.80, 26.70],
          [84.30, 26.80],
          [83.80, 26.70],
          [83.30, 26.60],
          [82.80, 26.60],
          [82.30, 26.55],
          [81.80, 26.60],
          [81.30, 26.60],
          [80.80, 26.80],
          [80.30, 27.10],
          [80.05, 27.60],
          [80.10, 28.10],
          [80.30, 28.50],
          [80.50, 28.80],
          [80.40, 28.65],
          [80.10, 28.30],
          [80.00, 27.80],
          [80.10, 27.20],
          [80.45, 26.80],
          [80.80, 26.60],
          [81.30, 26.50],
          [81.85, 26.50],
          [82.40, 26.30],
          [82.80, 26.30],
          [83.30, 26.40],
          [83.80, 26.50],
          [84.15, 26.60],
          [84.70, 26.40],
          [84.80, 26.10],
          [84.80, 25.60],
          [84.60, 25.20],
          [84.40, 24.80],
          [84.20, 24.40],
          [83.90, 24.10],
          [83.50, 24.00],
          [83.10, 24.10],
          [82.70, 24.10],
          [82.30, 24.10],
          [81.90, 24.40],
          [81.60, 24.60],
          [81.15, 24.55],
          [80.80, 24.40],
          [80.40, 24.30],
          [80.00, 24.20],
          [79.70, 24.00],
          [79.50, 23.50],
          [79.10, 23.00],
          [78.80, 22.60],
          [78.50, 22.30],
          [78.20, 21.90],
          [77.80, 21.60],
          [77.40, 21.40],
          [77.05, 21.10],
          [76.80, 20.70],
          [76.40, 20.40],
          [76.00, 20.10],
          [75.60, 19.90],
          [75.20, 19.80],
          [74.80, 19.75],
          [74.40, 20.00],
          [74.00, 20.10],
          [73.75, 20.00],
          [73.30, 19.70],
          [73.05, 19.25],
          [72.90, 18.95],
          [73.00, 18.50],
          [73.20, 17.70],
          [73.50, 16.50],
          [73.80, 15.70],
          [74.15, 14.90],
          [74.50, 14.20],
          [74.70, 13.50],
          [74.85, 12.80],
          [75.15, 12.10],
          [75.50, 11.60],
          [75.80, 11.10],
          [76.10, 10.50],
          [76.30, 10.00],
          [76.40, 9.55],
          [76.60, 9.00],
          [77.05, 8.35],
          [77.55, 8.08]
        ]]
      }
    },
    {
      "type": "Feature",
      "properties": { "name": "Andaman and Nicobar Islands" },
      "geometry": {
        "type": "Polygon",
        "coordinates": [[
          [92.60, 13.70],
          [92.85, 13.20],
          [93.00, 12.70],
          [93.05, 12.00],
          [93.10, 11.50],
          [93.05, 10.80],
          [92.90, 10.20],
          [92.80, 9.50],
          [92.70, 8.80],
          [92.55, 7.50],
          [92.40, 6.80],
          [92.25, 7.00],
          [92.30, 7.80],
          [92.40, 8.50],
          [92.50, 9.20],
          [92.55, 10.00],
          [92.55, 10.80],
          [92.50, 11.50],
          [92.50, 12.20],
          [92.50, 12.80],
          [92.45, 13.30],
          [92.50, 13.70],
          [92.60, 13.70]
        ]]
      }
    },
    {
      "type": "Feature",
      "properties": { "name": "Lakshadweep Islands" },
      "geometry": {
        "type": "Polygon",
        "coordinates": [[
          [72.00, 11.50],
          [72.50, 11.00],
          [72.80, 10.50],
          [73.00, 10.00],
          [72.80, 9.50],
          [72.50, 8.50],
          [72.20, 8.30],
          [71.90, 8.50],
          [71.80, 9.00],
          [71.70, 10.00],
          [71.80, 10.80],
          [71.90, 11.30],
          [72.00, 11.50]
        ]]
      }
    }
  ]
}
